EUTELSAT 21B            
1 38992U 12062B   25228.54097563  .00000125  00000+0  00000+0 0  9996
2 38992   0.0688   6.5748 0003126 133.0148  41.9154  1.00272706 46770
EUTELSAT 70B            
1 39020U 12069A   25228.55069865 -.00000048  00000+0  00000+0 0  9996
2 39020   0.0645   8.6844 0003552 137.3049  87.9321  1.00271903 46455
EUTELSAT 117 WEST A     
1 39122U 13012A   25228.55669747 -.00000017  00000+0  00000+0 0  9999
2 39122   0.0145  69.3895 0002832  87.9520 251.4464  1.00270698 45373
EUTELSAT 7B             
1 39163U 13022A   25228.32395306  .00000044  00000+0  00000+0 0  9996
2 39163   0.0724 335.1952 0002024  72.6693  40.7003  1.00270407 44908
EXPRESS-AT1             
1 39612U 14010A   25228.16136252  .00000075  00000+0  00000+0 0  9992
2 39612   0.0067 142.9304 0000153 189.3255 106.6294  1.00273204 41755
EXPRESS-AT2             
1 39613U 14010B   25228.61801193 -.00000286  00000+0  00000+0 0  9991
2 39613   0.0083 142.6466 0000173 231.8903 313.0411  1.00271224 41446
EUTELSAT 3B             
1 39773U 14030A   25228.39440823  .00000016  00000+0  00000+0 0  9994
2 39773   0.0638   7.5043 0004135 144.1042 318.4897  1.00271729 41011
EUTELSAT 115 WEST B     
1 40425U 15010B   25228.39211241 -.00000029  00000+0  00000+0 0  9994
2 40425   0.0120 222.8300 0000174 200.8829 287.5642  1.00271978 38334
